NORAD_CAT_ID,OBJECT_NAME,OBJECT_TYPE,EPOCH,MEAN_MOTION,ECCENTRICITY,INCLINATION,RA_OF_ASC_NODE,ARG_OF_PERICENTER,MEAN_ANOMALY,BSTAR,MEAN_MOTION_DOT,MEAN_MOTION_DDOT,TLE_LINE0,TLE_LINE1,TLE_LINE2,SEMIMAJOR_AXIS,PERIOD,APOGEE,PERIGEE,DECAYED
54773.0,STARLINK-5453,PAYLOAD,2024-05-18 08:40:27,15.08862897,0.0001581,53.2149,128.3254,91.2747,268.8426,0.00098313,0.00015403,0.0,0 STARLINK-5453,1 54773U 22175R   24139.36142546  .00015403  00000-0  98313-3 0  9993,2 54773  53.2149 128.3254 0001581  91.2747 268.8426 15.08862897 78074,6917.81,95.436,540.769,538.582,0.0
54773.0,STARLINK-5453,PAYLOAD,2024-05-18 16:37:22,15.08861237,0.0001563,53.2145,126.8389,90.7088,269.4083,0.00060177,9.308e-05,0.0,0 STARLINK-5453,1 54773U 22175R   24139.69262257  .00009308  00000-0  60177-3 0  9995,2 54773  53.2145 126.8389 0001563  90.7088 269.4083 15.08861237 78123,6917.815,95.436,540.762,538.599,0.0
54773.0,STARLINK-5453,PAYLOAD,2024-05-19 05:20:27,15.08863638,0.000191,53.2146,124.4586,101.1256,258.9951,0.00048634,7.465e-05,0.0,0 STARLINK-5453,1 54773U 22175R   24140.22253731  .00007465  00000-0  48634-3 0  9999,2 54773  53.2146 124.4586 0001910 101.1256 258.9951 15.08863638 80360,6917.808,95.436,540.994,538.352,0.0
54773.0,STARLINK-5453,PAYLOAD,2024-05-20 05:11:14,15.08840757,0.0001497,53.2153,119.9988,84.152,275.9642,0.00026351,3.908e-05,0.0,0 STARLINK-5453,1 54773U 22175R   24141.21614079  .00003908  00000-0  26351-3 0  9995,2 54773  53.2153 119.9988 0001497  84.1520 275.9642 15.08840757 78356,6917.878,95.438,540.779,538.707,0.0
54773.0,STARLINK-5453,PAYLOAD,2024-05-21 03:26:38,15.08836336,0.000161,53.2162,115.8359,107.7511,252.3657,3.9861e-06,-2.25e-06,0.0,0 STARLINK-5453,1 54773U 22175R   24142.14350398 -.00000225  00000-0  39861-5 0  9991,2 54773  53.2162 115.8359 0001610 107.7511 252.3657 15.08836336 78490,6917.892,95.438,540.87,538.643,0.0
54773.0,STARLINK-5453,PAYLOAD,2024-05-21 08:12:48,15.08838182,0.0001571,53.2162,114.9436,106.2808,253.8357,6.3079e-05,7.16e-06,0.0,0 STARLINK-5453,1 54773U 22175R   24142.34222422  .00000716  00000-0  63079-4 0  9990,2 54773  53.2162 114.9436 0001571 106.2808 253.8357 15.08838182 80683,6917.886,95.438,540.838,538.664,0.0
54773.0,STARLINK-5453,PAYLOAD,2024-05-22 03:17:25,15.08843444,0.0001582,53.2166,111.3762,111.811,248.3051,0.00019243,2.776e-05,0.0,0 STARLINK-5453,1 54773U 22175R   24143.13710140  .00002776  00000-0  19243-3 0  9998,2 54773  53.2166 111.3762 0001582 111.8110 248.3051 15.08843444 78640,6917.87,95.437,540.829,538.64,0.0
54773.0,STARLINK-5453,PAYLOAD,2024-05-22 20:46:40,15.08841648,0.000132,53.2163,108.1045,98.8189,261.2953,0.00010271,1.347e-05,0.0,0 STARLINK-5453,1 54773U 22175R   24143.86574264  .00001347  00000-0  10271-3 0  9998,2 54773  53.2163 108.1045 0001320  98.8189 261.2953 15.08841648 80917,6917.875,95.437,540.654,538.827,0.0
54773.0,STARLINK-5453,PAYLOAD,2024-05-23 03:08:12,15.08838768,0.0001368,53.2165,106.9147,89.1491,270.9658,8.807e-05,1.114e-05,0.0,0 STARLINK-5453,1 54773U 22175R   24144.13070436  .00001114  00000-0  88070-4 0  9996,2 54773  53.2165 106.9147 0001368  89.1491 270.9658 15.08838768 78790,6917.884,95.438,540.696,538.803,0.0
54773.0,STARLINK-5453,PAYLOAD,2024-05-23 06:18:59,15.08840791,0.0001334,53.2165,106.3205,87.038,273.0764,5.4681e-05,5.82e-06,0.0,0 STARLINK-5453,1 54773U 22175R   24144.26318323  .00000582  00000-0  54681-4 0  9999,2 54773  53.2165 106.3205 0001334  87.0380 273.0764 15.08840791 80970,6917.878,95.438,540.666,538.82,0.0
54773.0,STARLINK-5453,PAYLOAD,2024-05-24 04:34:22,15.0884829,0.0001699,53.2171,102.1566,71.9149,288.2028,3.6865e-05,2.99e-06,0.0,0 STARLINK-5453,1 54773U 22175R   24145.19054333  .00000299  00000-0  36865-4 0  9999,2 54773  53.2171 102.1566 0001699  71.9149 288.2028 15.08848290 78958,6917.855,95.437,540.895,538.545,0.0
54773.0,STARLINK-5453,PAYLOAD,2024-05-24 06:09:45,15.08850761,0.0001719,53.2171,101.8587,79.2193,280.8992,5.5507e-05,5.96e-06,0.0,0 STARLINK-5453,1 54773U 22175R   24145.25678079  .00000596  00000-0  55507-4 0  9999,2 54773  53.2171 101.8587 0001719  79.2193 280.8992 15.08850761 81127,6917.847,95.437,540.902,538.523,0.0
54773.0,STARLINK-5453,PAYLOAD,2024-05-24 20:28:14,15.08835717,0.0001448,53.2164,99.1825,99.5041,260.6115,-2.9958e-06,-3.36e-06,0.0,0 STARLINK-5453,1 54773U 22175R   24145.85294628 -.00000336  00000-0 -29958-5 0  9995,2 54773  53.2164  99.1825 0001448  99.5041 260.6115 15.08835717 79055,6917.893,95.438,540.76,538.757,0.0
54773.0,STARLINK-5453,PAYLOAD,2024-05-25 13:57:29,15.08834018,0.00011,53.2169,95.9137,104.3304,255.7811,6.9935e-05,8.25e-06,0.0,0 STARLINK-5453,1 54773U 22175R   24146.58159187  .00000825  00000-0  69935-4 0  9995,2 54773  53.2169  95.9137 0001100 104.3304 255.7811 15.08834018 81326,6917.899,95.438,540.525,539.003,0.0
54773.0,STARLINK-5453,PAYLOAD,2024-05-26 02:40:34,15.08839237,0.0001283,53.2161,93.5353,96.3826,263.7313,-3.1057e-05,-7.82e-06,0.0,0 STARLINK-5453,1 54773U 22175R   24147.11151375 -.00000782  00000-0 -31057-4 0  9994,2 54773  53.2161  93.5353 0001283  96.3826 263.7313 15.08839237 79245,6917.883,95.438,540.635,538.86,0.0
54773.0,STARLINK-5453,PAYLOAD,2024-05-26 05:51:20,15.08845547,0.0001361,53.2175,92.939,97.1561,262.9586,2.2342e-05,6.8e-07,0.0,0 STARLINK-5453,1 54773U 22175R   24147.24398831  .00000068  00000-0  22342-4 0  9990,2 54773  53.2175  92.9390 0001361  97.1561 262.9586 15.08845547 79262,6917.863,95.437,540.67,538.787,0.0
54773.0,STARLINK-5453,PAYLOAD,2024-05-26 20:09:48,15.08841378,0.0001478,53.2165,90.2623,87.401,272.7152,0.00013546,1.869e-05,0.0,0 STARLINK-5453,1 54773U 22175R   24147.84014960  .00001869  00000-0  13546-3 0  9999,2 54773  53.2165  90.2623 0001478  87.4010 272.7152 15.08841378 81518,6917.876,95.437,540.764,538.719,0.0
54773.0,STARLINK-5453,PAYLOAD,2024-05-27 13:39:03,15.08841879,0.0001766,53.2178,86.9959,69.1701,290.948,0.00013095,1.797e-05,0.0,0 STARLINK-5453,1 54773U 22175R   24148.56878941  .00001797  00000-0  13095-3 0  9995,2 54773  53.2178  86.9959 0001766  69.1701 290.9480 15.08841879 81624,6917.875,95.437,540.961,538.518,0.0
54773.0,STARLINK-5453,PAYLOAD,2024-05-28 02:22:08,15.08845094,0.0001493,53.218,84.6066,123.825,236.2884,2.0904e-05,4.5e-07,0.0,0 STARLINK-5453,1 54773U 22175R   24149.09870757  .00000045  00000-0  20904-4 0  9994,2 54773  53.2180  84.6066 0001493 123.8250 236.2884 15.08845094 81708,6917.865,95.437,540.763,538.697,0.0
54773.0,STARLINK-5453,PAYLOAD,2024-05-29 02:12:55,15.08847436,0.0001447,53.2182,80.1498,98.0057,262.1099,-4.5264e-05,-1.008e-05,0.0,0 STARLINK-5453,1 54773U 22175R   24150.09230748 -.00001008  00000-0 -45264-4 0  9994,2 54773  53.2182  80.1498 0001447  98.0057 262.1099 15.08847436 79690,6917.858,95.437,540.724,538.722,0.0
54773.0,STARLINK-5453,PAYLOAD,2024-05-29 19:42:10,15.08836646,0.0001556,53.2185,76.882,102.7571,257.3595,5.8401e-05,6.41e-06,0.0,0 STARLINK-5453,1 54773U 22175R   24150.82095288  .00000641  00000-0  58401-4 0  9990,2 54773  53.2185  76.8820 0001556 102.7571 257.3595 15.08836646 79800,6917.891,95.438,540.832,538.679,0.0
54773.0,STARLINK-5453,PAYLOAD,2024-05-29 22:52:56,15.08837523,0.0001557,53.2186,76.2881,102.3964,257.7203,6.1499e-05,6.91e-06,0.0,0 STARLINK-5453,1 54773U 22175R   24150.95343250  .00000691  00000-0  61499-4 0  9995,2 54773  53.2186  76.2881 0001557 102.3964 257.7203 15.08837523 81982,6917.888,95.438,540.83,538.676,0.0
54773.0,STARLINK-5453,PAYLOAD,2024-05-30 02:03:42,15.08838464,0.0001536,53.2187,75.6922,98.1246,261.992,7.4481e-05,8.98e-06,0.0,0 STARLINK-5453,1 54773U 22175R   24151.08591216  .00000898  00000-0  74481-4 0  9991,2 54773  53.2187  75.6922 0001536  98.1246 261.9920 15.08838464 82006,6917.885,95.438,540.813,538.687,0.0
54773.0,STARLINK-5453,PAYLOAD,2024-05-31 03:29:52,15.08842646,0.000157,53.2195,70.9341,91.961,268.1562,0.00010051,1.312e-05,0.0,0 STARLINK-5453,1 54773U 22175R   24152.14575045  .00001312  00000-0  10051-3 0  9995,2 54773  53.2195  70.9341 0001570  91.9610 268.1562 15.08842646 80008,6917.872,95.437,540.823,538.651,0.0
54773.0,STARLINK-5453,PAYLOAD,2024-05-31 22:34:31,15.08831534,0.0001793,53.2201,67.3667,85.4453,274.6744,4.1297e-05,3.69e-06,0.0,0 STARLINK-5453,1 54773U 22175R   24152.94064113  .00000369  00000-0  41297-4 0  9990,2 54773  53.2201  67.3667 0001793  85.4453 274.6744 15.08831534 82287,6917.906,95.438,541.012,538.531,0.0
54773.0,STARLINK-5453,PAYLOAD,2024-06-01 03:20:40,15.08837932,0.0001593,53.218,66.4758,87.7883,272.3291,4.8601e-05,4.86e-06,0.0,0 STARLINK-5453,1 54773U 22175R   24153.13935842  .00000486  00000-0  48601-4 0  9994,2 54773  53.2180  66.4758 0001593  87.7883 272.3291 15.08837932 80158,6917.887,95.438,540.854,538.65,0.0
54773.0,STARLINK-5453,PAYLOAD,2024-06-01 11:17:36,15.0884074,0.0001622,53.2188,64.989,86.3585,273.7593,5.4527e-05,5.8e-06,0.0,0 STARLINK-5453,1 54773U 22175R   24153.47055726  .00000580  00000-0  54527-4 0  9994,2 54773  53.2188  64.9890 0001622  86.3585 273.7593 15.08840740 82369,6917.878,95.438,540.865,538.621,0.0
54773.0,STARLINK-5453,PAYLOAD,2024-06-02 03:11:26,15.08854498,0.0001301,53.2181,62.0157,104.54,255.5737,2.7145e-05,1.44e-06,0.0,0 STARLINK-5453,1 54773U 22175R   24154.13294855  .00000144  00000-0  27145-4 0  9998,2 54773  53.2181  62.0157 0001301 104.5400 255.5737 15.08854498 80305,6917.836,95.437,540.601,538.801,0.0
54773.0,STARLINK-5453,PAYLOAD,2024-06-02 11:08:23,15.08835803,0.0001596,53.2215,60.5245,90.5316,269.5859,3.9294e-05,3.37e-06,0.0,0 STARLINK-5453,1 54773U 22175R   24154.46416094  .00000337  00000-0  39294-4 0  9997,2 54773  53.2215  60.5245 0001596  90.5316 269.5859 15.08835803 80354,6917.893,95.438,540.862,538.654,0.0
54773.0,STARLINK-5453,PAYLOAD,2024-06-02 17:29:56,15.0883233,0.000169,53.2185,59.3381,89.3733,270.7453,6.1911e-05,6.97e-06,0.0,0 STARLINK-5453,1 54773U 22175R   24154.72912456  .00000697  00000-0  61911-4 0  9999,2 54773  53.2185  59.3381 0001690  89.3733 270.7453 15.08832330 82551,6917.904,95.438,540.938,538.6,0.0
